#aV2014  9 13  0  0  0.00000000     288 DD+AD WGS84 FIT  NGA
## 1809 518400.00000000   300.00000000 56913 0.0000000000000
+   31     1  2  4  5  6  7  8  9 10 11 12 13 14 15 16 17 18
+         19 20 21 22 23 24 25 26 27 28 29 30 31 32  0  0  0
+          0  0  0  0  0  0  0  0  0  0  0  0  0  0  0  0  0
+          0  0  0  0  0  0  0  0  0  0  0  0  0  0  0  0  0
+          0  0  0  0  0  0  0  0  0  0  0  0  0  0  0  0  0
++         2  2  2  2  2  2  2  2  2  2  2  2  2  2  2  2  2
++         2  2  2  2  2  2  2  2  2  2  2  2  2  2  0  0  0
++         0  0  0  0  0  0  0  0  0  0  0  0  0  0  0  0  0
++         0  0  0  0  0  0  0  0  0  0  0  0  0  0  0  0  0
++         0  0  0  0  0  0  0  0  0  0  0  0  0  0  0  0  0
%c cc cc ccc ccc cccc cccc cccc cccc ccccc ccccc ccccc ccccc
%c cc cc ccc ccc cccc cccc cccc cccc ccccc ccccc ccccc ccccc
%f  0.0000000  0.000000000  0.00000000000  0.000000000000000
%f  0.0000000  0.000000000  0.00000000000  0.000000000000000
%i    0    0    0    0      0      0      0      0         0
%i    0    0    0    0      0      0      0      0         0
/*      NGA, ST. LOUIS,MO.                                  
/*   EPHEMERIS COMPUTED FROM  1 DAYS OF DATA                
/*   EPOCHA SMOOTHER                                       
/* CCCCCCCCCCCCCCCCCCCCCCCCCCCCCCCCCCCCCCCCCCCCCCCCCCCCCCCCC
*  2014  9 13 20 35  0.00000000
P  1  21418.143799  13620.779413  -8132.039681     21.151860                    
V  1 -10459.076574  -1092.613360 -29386.090261      0.005418                    
P  2    841.352180 -16155.919417  21423.848927    518.260425                    
V  2  25338.600830   7801.866576   4476.567992      0.021835                    
P  4  25079.686463   9092.665225   -843.442788     -0.690297                    
V  4  -1707.829824   2907.970768 -31087.174214     -0.002781                    
P  5  -1241.306593 -25907.509458   5234.619882   -339.960793                    
V  5   4539.552654   5982.044071  30616.645786      0.037737                    
P  6  14714.524003  -9612.442895  19894.015691     -4.838184                    
V  6  23537.003767   9338.839401 -12899.926652      0.006754                    
P  7  25581.330801   6288.512477  -4577.240901    391.253784                    
V  7   4742.626239   4031.143913  31084.195386      0.042246                    
P  8  24601.893301  10581.692441  -2287.489351     15.545801                    
V  8   2237.158628   2425.799494  31931.546382      0.002312                    
P  9  20284.814978  -1758.838938  17072.278290     19.751151                    
V  9 -15201.303133  15534.442586  19649.477966     -0.019602                    
P 10  10369.187245 -16043.865562  17920.760585   -141.840151                    
V 10   6300.910649  22937.090328  16987.644904     -0.015070                    
P 11  16682.081810  13378.526078 -16374.336126   -520.991655                    
V 11 -20076.313208   2666.673600 -18689.030621     -0.028638                    
P 12 -10336.698946 -22136.002931  10601.963918    231.749552                    
V 12   -429.379749 -13553.225651 -28301.052577      0.026669                    
P 13  20069.326135    416.545662  17360.566166    -41.181591                    
V 13 -17481.301896  13716.558972  19570.862038     -0.039031                    
P 14 -22025.897323  14510.820698  -2076.121033    135.235755                    
V 14    747.115227  -3916.045088 -31885.284055     -0.036928                    
P 15  -7459.336387 -14335.928719 -21102.453936   -202.661405                    
V 15  20066.579231 -17775.966023   5298.594801     -0.022284                    
P 16    -95.516043  25842.919379   5179.202310   -195.083057                    
V 16  -3006.955413  -6365.285890  31702.702001      0.025364                    
P 17  21723.361241 -14757.773719  -2757.632664   -123.653689                    
V 17  -1314.139990   4535.876016 -31840.877921     -0.027308                    
P 18 -16142.466760  -1574.676756 -20607.747060    344.633280                    
V 18  -4871.408812 -26904.242272   5425.123783      0.025620                    
P 19   2226.066161  16205.804293 -20996.075545   -478.534945                    
V 19 -22034.511904  14515.570540   9376.987313     -0.018621                    
P 20  14931.222519  17236.827575  13481.954233    233.499504                    
V 20   1492.514472  17688.730424 -23858.799154      0.044228                    
P 21 -25140.939142  -1958.426779  -8342.195313   -383.831190                    
V 21  -9781.849311  -6680.738501  28376.999663     -0.020900                    
P 22 -12056.603744  13493.280721 -19175.930661    267.574346                    
V 22  -6696.233105 -24153.714607 -12807.697421      0.035212                    
P 23  14106.623507   7936.823174  21246.497035    -52.097244                    
V 23 -20033.079477  17586.697922   6346.102417     -0.028988                    
P 24 -18873.597863 -14859.526805 -11463.933958    -35.139527                    
V 24  14528.668678   2286.746254 -26821.705658     -0.005963                    
P 25 -15049.377841 -11284.853970  18726.186803     21.529769                    
V 25  -3388.364238 -23638.151428 -16768.593339     -0.009895                    
P 26   5921.170367 -19115.733005 -17976.339825    -53.884709                    
V 26  18482.014955 -11284.563966  19055.513815     -0.129773                    
P 27  -8043.305863  20543.879455 -14755.982925     14.207566                    
V 27 -15477.065805  10740.466981  23480.927337      0.030589                    
P 28  12935.673276  -8357.779298 -21011.991036    384.133734                    
V 28   4092.895808  27777.881791  -8415.712290      0.026931                    
P 29 -19804.958667     13.507277  17704.139806    560.154920                    
V 29  16794.348567 -14928.024577  18865.146788      0.024868                    
P 30  22260.447777  -1348.881770 -14464.560650    -61.539269                    
V 30  15956.718835   9312.534197  23639.606419     -0.045677                    
P 31 -13263.156093  10028.693790  20934.770692    331.737567                    
V 31 -24173.317595  -9884.450234 -10354.080700     -0.004017                    
P 32   5291.060083  26099.224762   3526.296224   -340.857193                    
V 32  -2249.264339   4635.685928 -30692.279547      0.085440                    
EOF
